[{"OBJECT_NAME":"DMSP 5D-3 F16 (USA 172)","OBJECT_ID":"2003-048A","EPOCH":"2026-03-09T23:47:05.957088","MEAN_MOTION":14.14462092,"ECCENTRICITY":0.00081219,"INCLINATION":98.9993,"RA_OF_ASC_NODE":92.1206,"ARG_OF_PERICENTER":71.9224,"MEAN_ANOMALY":346.9229,"EPHEMERIS_TYPE":0,"CLASSIFICATION_TYPE":"U","NORAD_CAT_ID":28054,"ELEMENT_SET_NO":999,"REV_AT_EPOCH":15546,"BSTAR":0.0001083613,"MEAN_MOTION_DOT":1.62e-6,"MEAN_MOTION_DDOT":0},{"OBJECT_NAME":"CZ-6A DEB","OBJECT_ID":"2024-140WR","EPOCH":"2026-03-09T02:27:01.455552","MEAN_MOTION":14.18458837,"ECCENTRICITY":0.00579658,"INCLINATION":89.0003,"RA_OF_ASC_NODE":286.444,"ARG_OF_PERICENTER":170.9499,"MEAN_ANOMALY":189.275,"EPHEMERIS_TYPE":0,"CLASSIFICATION_TYPE":"U","NORAD_CAT_ID":61376,"ELEMENT_SET_NO":999,"REV_AT_EPOCH":7808,"BSTAR":0.00049617185,"MEAN_MOTION_DOT":1.056e-5,"MEAN_MOTION_DDOT":0}]
